[{"OBJECT_NAME":"STARLINK-6205","OBJECT_ID":"2023-083Y","EPOCH":"2026-03-09T22:00:01.999584","MEAN_MOTION":15.14035964,"ECCENTRICITY":0.00018199,"INCLINATION":43.0003,"RA_OF_ASC_NODE":79.6562,"ARG_OF_PERICENTER":276.7987,"MEAN_ANOMALY":125.782,"EPHEMERIS_TYPE":0,"CLASSIFICATION_TYPE":"U","NORAD_CAT_ID":56898,"ELEMENT_SET_NO":999,"REV_AT_EPOCH":557,"BSTAR":0.0035526049,"MEAN_MOTION_DOT":0.00066103,"MEAN_MOTION_DDOT":0},{"OBJECT_NAME":"CZ-6A DEB","OBJECT_ID":"2024-140DH","EPOCH":"2026-03-09T14:42:58.375296","MEAN_MOTION":14.89586287,"ECCENTRICITY":0.0114118,"INCLINATION":89.149,"RA_OF_ASC_NODE":291.0293,"ARG_OF_PERICENTER":161.7952,"MEAN_ANOMALY":198.7416,"EPHEMERIS_TYPE":0,"CLASSIFICATION_TYPE":"U","NORAD_CAT_ID":60704,"ELEMENT_SET_NO":999,"REV_AT_EPOCH":8478,"BSTAR":0.0015025,"MEAN_MOTION_DOT":0.00016252,"MEAN_MOTION_DDOT":0}]
